{"fetched_at":"2026-07-15T17:47:16.434Z","source":"https://celestrak.org/NORAD/elements/gp.php?NAME=ICEYE&FORMAT=JSON","constellation":"iceye","records":[{"OBJECT_NAME":"ICEYE-X53","OBJECT_ID":"2025-135BJ","EPOCH":"2026-07-15T03:48:12.148416","CLASSIFICATION_TYPE":"U","MEAN_MOTION":15.00892155,"ECCENTRICITY":0.000191,"INCLINATION":97.7361,"RA_OF_ASC_NODE":312.8174,"ARG_OF_PERICENTER":165.3472,"MEAN_ANOMALY":194.7808,"EPHEMERIS_TYPE":0,"NORAD_CAT_ID":64584,"ELEMENT_SET_NO":999,"REV_AT_EPOCH":5827,"BSTAR":0.00011568,"MEAN_MOTION_DOT":0.00001412,"MEAN_MOTION_DDOT":0},{"OBJECT_NAME":"ICEYE-X65","OBJECT_ID":"2025-248H","EPOCH":"2026-07-14T12:15:29.088576","CLASSIFICATION_TYPE":"U","MEAN_MOTION":15.07925678,"ECCENTRICITY":0.00054849,"INCLINATION":45.4057,"RA_OF_ASC_NODE":350.4988,"ARG_OF_PERICENTER":195.6128,"MEAN_ANOMALY":164.4585,"EPHEMERIS_TYPE":0,"NORAD_CAT_ID":66300,"ELEMENT_SET_NO":999,"REV_AT_EPOCH":3964,"BSTAR":0.00012370467,"MEAN_MOTION_DOT":0.00001681,"MEAN_MOTION_DDOT":0},{"OBJECT_NAME":"ICEYE-X66","OBJECT_ID":"2025-248J","EPOCH":"2026-07-14T10:37:39.787968","CLASSIFICATION_TYPE":"U","MEAN_MOTION":15.09174059,"ECCENTRICITY":0.00051263,"INCLINATION":45.4024,"RA_OF_ASC_NODE":349.9449,"ARG_OF_PERICENTER":191.3181,"MEAN_ANOMALY":168.7587,"EPHEMERIS_TYPE":0,"NORAD_CAT_ID":66301,"ELEMENT_SET_NO":999,"REV_AT_EPOCH":3962,"BSTAR":0.0001279873,"MEAN_MOTION_DOT":0.00001814,"MEAN_MOTION_DDOT":0},{"OBJECT_NAME":"ICEYE-X67","OBJECT_ID":"2025-248K","EPOCH":"2026-07-14T11:13:11.732160","CLASSIFICATION_TYPE":"U","MEAN_MOTION":15.09156493,"ECCENTRICITY":0.00065632,"INCLINATION":45.406,"RA_OF_ASC_NODE":349.393,"ARG_OF_PERICENTER":191.3599,"MEAN_ANOMALY":168.7136,"EPHEMERIS_TYPE":0,"NORAD_CAT_ID":66302,"ELEMENT_SET_NO":999,"REV_AT_EPOCH":3964,"BSTAR":0.0001138946,"MEAN_MOTION_DOT":0.00001585,"MEAN_MOTION_DDOT":0},{"OBJECT_NAME":"ICEYE-X58","OBJECT_ID":"2025-276CP","EPOCH":"2026-07-15T03:32:34.927008","CLASSIFICATION_TYPE":"U","MEAN_MOTION":15.17306703,"ECCENTRICITY":0.0002159,"INCLINATION":97.4197,"RA_OF_ASC_NODE":269.0271,"ARG_OF_PERICENTER":213.5037,"MEAN_ANOMALY":146.606,"EPHEMERIS_TYPE":0,"NORAD_CAT_ID":66751,"ELEMENT_SET_NO":999,"REV_AT_EPOCH":3465,"BSTAR":0.000073417,"MEAN_MOTION_DOT":0.00001397,"MEAN_MOTION_DDOT":0},{"OBJECT_NAME":"ICEYE-X59","OBJECT_ID":"2025-276CQ","EPOCH":"2026-07-15T03:29:56.831424","CLASSIFICATION_TYPE":"U","MEAN_MOTION":15.00752713,"ECCENTRICITY":0.000107,"INCLINATION":97.439,"RA_OF_ASC_NODE":266.2481,"ARG_OF_PERICENTER":142.2844,"MEAN_ANOMALY":217.8456,"EPHEMERIS_TYPE":0,"NORAD_CAT_ID":66752,"ELEMENT_SET_NO":999,"REV_AT_EPOCH":3446,"BSTAR":0.00021452,"MEAN_MOTION_DOT":0.00002664,"MEAN_MOTION_DDOT":0},{"OBJECT_NAME":"ICEYE-X60","OBJECT_ID":"2025-276CR","EPOCH":"2026-07-14T11:18:21.334464","CLASSIFICATION_TYPE":"U","MEAN_MOTION":15.10911363,"ECCENTRICITY":0.00022387,"INCLINATION":97.4254,"RA_OF_ASC_NODE":267.3325,"ARG_OF_PERICENTER":293.0305,"MEAN_ANOMALY":67.0689,"EPHEMERIS_TYPE":0,"NORAD_CAT_ID":66753,"ELEMENT_SET_NO":999,"REV_AT_EPOCH":3448,"BSTAR":0.00017596466,"MEAN_MOTION_DOT":0.00002869,"MEAN_MOTION_DDOT":0},{"OBJECT_NAME":"ICEYE-X61","OBJECT_ID":"2025-276CS","EPOCH":"2026-07-15T03:58:49.255968","CLASSIFICATION_TYPE":"U","MEAN_MOTION":15.18608533,"ECCENTRICITY":0.000208,"INCLINATION":97.4194,"RA_OF_ASC_NODE":269.1345,"ARG_OF_PERICENTER":215.9343,"MEAN_ANOMALY":144.1752,"EPHEMERIS_TYPE":0,"NORAD_CAT_ID":66754,"ELEMENT_SET_NO":999,"REV_AT_EPOCH":3466,"BSTAR":0.000081009,"MEAN_MOTION_DOT":0.00001609,"MEAN_MOTION_DDOT":0},{"OBJECT_NAME":"ICEYE-X62","OBJECT_ID":"2025-276CT","EPOCH":"2026-07-14T03:57:48.710304","CLASSIFICATION_TYPE":"U","MEAN_MOTION":15.10134811,"ECCENTRICITY":0.00010646,"INCLINATION":97.4198,"RA_OF_ASC_NODE":266.5267,"ARG_OF_PERICENTER":276.0122,"MEAN_ANOMALY":84.0986,"EPHEMERIS_TYPE":0,"NORAD_CAT_ID":66755,"ELEMENT_SET_NO":999,"REV_AT_EPOCH":3440,"BSTAR":0.000073696882,"MEAN_MOTION_DOT":0.0000114,"MEAN_MOTION_DDOT":0},{"OBJECT_NAME":"ICEYE-X63","OBJECT_ID":"2026-004K","EPOCH":"2026-07-14T23:34:58.322208","CLASSIFICATION_TYPE":"U","MEAN_MOTION":14.88348779,"ECCENTRICITY":0.0005429,"INCLINATION":97.8014,"RA_OF_ASC_NODE":194.1889,"ARG_OF_PERICENTER":52.5106,"MEAN_ANOMALY":307.6604,"EPHEMERIS_TYPE":0,"NORAD_CAT_ID":67372,"ELEMENT_SET_NO":999,"REV_AT_EPOCH":2743,"BSTAR":0.000054081,"MEAN_MOTION_DOT":0.00000446,"MEAN_MOTION_DDOT":0},{"OBJECT_NAME":"ICEYE-X64","OBJECT_ID":"2026-004L","EPOCH":"2026-07-14T23:08:12.324192","CLASSIFICATION_TYPE":"U","MEAN_MOTION":14.87986833,"ECCENTRICITY":0.0007253,"INCLINATION":97.8027,"RA_OF_ASC_NODE":194.0899,"ARG_OF_PERICENTER":54.687,"MEAN_ANOMALY":305.5024,"EPHEMERIS_TYPE":0,"NORAD_CAT_ID":67373,"ELEMENT_SET_NO":999,"REV_AT_EPOCH":2742,"BSTAR":0.000075158,"MEAN_MOTION_DOT":0.00000635,"MEAN_MOTION_DDOT":0},{"OBJECT_NAME":"ICEYE-X71","OBJECT_ID":"2026-067CG","EPOCH":"2026-07-14T08:41:36.635712","CLASSIFICATION_TYPE":"U","MEAN_MOTION":14.91790708,"ECCENTRICITY":0.00010685,"INCLINATION":97.7625,"RA_OF_ASC_NODE":153.1825,"ARG_OF_PERICENTER":349.9955,"MEAN_ANOMALY":10.1242,"EPHEMERIS_TYPE":0,"NORAD_CAT_ID":68494,"ELEMENT_SET_NO":999,"REV_AT_EPOCH":1577,"BSTAR":0.00015178176,"MEAN_MOTION_DOT":0.00001475,"MEAN_MOTION_DDOT":0},{"OBJECT_NAME":"ICEYE-X73","OBJECT_ID":"2026-067CJ","EPOCH":"2026-07-14T20:37:48.074016","CLASSIFICATION_TYPE":"U","MEAN_MOTION":14.92347642,"ECCENTRICITY":0.00014886,"INCLINATION":97.7621,"RA_OF_ASC_NODE":153.7579,"ARG_OF_PERICENTER":148.8382,"MEAN_ANOMALY":211.2925,"EPHEMERIS_TYPE":0,"NORAD_CAT_ID":68496,"ELEMENT_SET_NO":999,"REV_AT_EPOCH":1585,"BSTAR":0.00010617694,"MEAN_MOTION_DOT":0.0000103,"MEAN_MOTION_DDOT":0},{"OBJECT_NAME":"ICEYE-X75","OBJECT_ID":"2026-067CK","EPOCH":"2026-07-15T03:10:27.158592","CLASSIFICATION_TYPE":"U","MEAN_MOTION":14.92173675,"ECCENTRICITY":0.0001444,"INCLINATION":97.7606,"RA_OF_ASC_NODE":153.9939,"ARG_OF_PERICENTER":145.0852,"MEAN_ANOMALY":215.0462,"EPHEMERIS_TYPE":0,"NORAD_CAT_ID":68497,"ELEMENT_SET_NO":999,"REV_AT_EPOCH":1589,"BSTAR":0.000035073,"MEAN_MOTION_DOT":0.00000301,"MEAN_MOTION_DDOT":0},{"OBJECT_NAME":"ICEYE-X74","OBJECT_ID":"2026-067CN","EPOCH":"2026-07-14T21:33:04.074912","CLASSIFICATION_TYPE":"U","MEAN_MOTION":14.91792312,"ECCENTRICITY":0.0000865,"INCLINATION":97.7632,"RA_OF_ASC_NODE":153.7202,"ARG_OF_PERICENTER":344.1575,"MEAN_ANOMALY":15.9616,"EPHEMERIS_TYPE":0,"NORAD_CAT_ID":68500,"ELEMENT_SET_NO":999,"REV_AT_EPOCH":1585,"BSTAR":0.00014807,"MEAN_MOTION_DOT":0.00001437,"MEAN_MOTION_DDOT":0},{"OBJECT_NAME":"ICEYE-X76","OBJECT_ID":"2026-067CQ","EPOCH":"2026-07-14T21:27:08.335008","CLASSIFICATION_TYPE":"U","MEAN_MOTION":14.91750383,"ECCENTRICITY":0.0000582,"INCLINATION":97.7639,"RA_OF_ASC_NODE":153.7343,"ARG_OF_PERICENTER":320.942,"MEAN_ANOMALY":39.1757,"EPHEMERIS_TYPE":0,"NORAD_CAT_ID":68502,"ELEMENT_SET_NO":999,"REV_AT_EPOCH":1585,"BSTAR":0.000071191,"MEAN_MOTION_DOT":0.00000662,"MEAN_MOTION_DDOT":0}]}
